{"type":"FeatureCollection","features":[{"type":"Feature","properties":{"name":"Savannah River","source":"OpenStreetMap"},"geometry":{"type":"MultiLineString","coordinates":[[[-82.85552,34.4439],[-82.85581,34.44131],[-82.85506,34.44059],[-82.85427,34.43357],[-82.85441,34.43004],[-82.85391,34.42854],[-82.84977,34.42568],[-82.84867,34.42438],[-82.84776,34.42055],[-82.84693,34.41992],[-82.84772,34.41828],[-82.84741,34.41229],[-82.84597,34.40817],[-82.84137,34.3991],[-82.84163,34.39133],[-82.84119,34.3898],[-82.83675,34.38356],[-82.83519,34.37444],[-82.83532,34.36757],[-82.8345,34.36487],[-82.83261,34.36308],[-82.82703,34.36046],[-82.8249,34.36059],[-82.82339,34.35881],[-82.82105,34.3585],[-82.81615,34.35386]],[[-82.81615,34.35386],[-82.8129,34.35165]],[[-82.81615,34.35386],[-82.81515,34.3537],[-82.81381,34.35398],[-82.8129,34.35165]],[[-82.8129,34.35165],[-82.80881,34.34956],[-82.80498,34.34624],[-82.80086,34.34426],[-82.79841,34.34157]],[[-82.79841,34.34157],[-82.79459,34.33581],[-82.79197,34.32705]],[[-82.79841,34.34157],[-82.79519,34.34088],[-82.79371,34.33899],[-82.79326,34.33518],[-82.79189,34.3335],[-82.79134,34.33112],[-82.79132,34.32898],[-82.79197,34.32705]],[[-82.79197,34.32705],[-82.78715,34.3107],[-82.78194,34.30337],[-82.78118,34.29892],[-82.77962,34.29566],[-82.7759,34.29083],[-82.7722,34.28792],[-82.7716,34.28607],[-82.76669,34.2822],[-82.76174,34.28185],[-82.76048,34.27971],[-82.75663,34.27688],[-82.75401,34.27556],[-82.75234,34.2726],[-82.74686,34.26649],[-82.74849,34.26446],[-82.74857,34.26335],[-82.74785,34.26084],[-82.74581,34.25832],[-82.74563,34.25416],[-82.74302,34.25139],[-82.74302,34.24838],[-82.74481,34.24602],[-82.74481,34.24369],[-82.74346,34.23914],[-82.74207,34.2289],[-82.74422,34.22648],[-82.74431,34.22489],[-82.74013,34.21918],[-82.74227,34.21405],[-82.74187,34.21021],[-82.74009,34.20649],[-82.73281,34.19529],[-82.73212,34.19342],[-82.73167,34.19023],[-82.73216,34.17974],[-82.73166,34.17778],[-82.73087,34.1761],[-82.72494,34.16909],[-82.71928,34.15666],[-82.71773,34.15091],[-82.71444,34.14727],[-82.70398,34.14086],[-82.70052,34.13947],[-82.69725,34.13886],[-82.69224,34.13895],[-82.69032,34.13795],[-82.68569,34.13417],[-82.67842,34.13227],[-82.67649,34.13097],[-82.66885,34.12107],[-82.66807,34.11906],[-82.66737,34.11442],[-82.66595,34.11209],[-82.66476,34.1114],[-82.66246,34.10836],[-82.66052,34.10686],[-82.65931,34.10414],[-82.65598,34.10253],[-82.6543,34.10043],[-82.64955,34.09918],[-82.64725,34.09795],[-82.64458,34.09466],[-82.64187,34.09259],[-82.64029,34.088],[-82.64032,34.0858],[-82.64259,34.08201],[-82.6434,34.0811],[-82.64474,34.08078],[-82.64538,34.0795],[-82.64551,34.07579],[-82.64168,34.06913],[-82.63958,34.06714],[-82.63555,34.06516],[-82.6348,34.06492],[-82.63138,34.06553],[-82.62696,34.06354],[-82.62436,34.0599],[-82.62141,34.05795],[-82.62007,34.05267],[-82.61889,34.05107],[-82.61294,34.04682],[-82.61098,34.04209],[-82.60987,34.04051],[-82.60081,34.03341],[-82.59449,34.02951],[-82.59388,34.02844],[-82.59382,34.027],[-82.59527,34.02164],[-82.59574,34.01726],[-82.59528,34.01515],[-82.59221,34.00926],[-82.58908,34.00075],[-82.588,33.99881],[-82.58493,33.9961],[-82.57708,33.99343],[-82.57554,33.99205],[-82.57561,33.99028],[-82.5795,33.98747],[-82.58033,33.98608],[-82.58069,33.9838],[-82.58035,33.98138],[-82.57736,33.97666],[-82.57414,33.9735],[-82.5694,33.9702],[-82.56829,33.96877],[-82.56615,33.9639],[-82.56586,33.95947],[-82.5651,33.95657],[-82.55684,33.94535],[-82.5545,33.94382],[-82.55243,33.94311],[-82.54373,33.941],[-82.54023,33.94139],[-82.53345,33.94372],[-82.52559,33.94359],[-82.51596,33.9386],[-82.51259,33.93669],[-82.5058,33.92899],[-82.49417,33.91085],[-82.4922,33.90923],[-82.48022,33.90197],[-82.46975,33.89267],[-82.45903,33.88602],[-82.45485,33.8815],[-82.44766,33.8775],[-82.4405,33.87517],[-82.43788,33.87335],[-82.43173,33.86758],[-82.42569,33.86447],[-82.42226,33.86375],[-82.41997,33.86385],[-82.4146,33.86527],[-82.40804,33.8662],[-82.4035,33.86545],[-82.39613,33.85941],[-82.38684,33.85553],[-82.3807,33.85175],[-82.37393,33.84551],[-82.37017,33.84288],[-82.34857,33.83514],[-82.34514,33.83321],[-82.33827,33.82758],[-82.3244,33.82002],[-82.323,33.81873],[-82.32166,33.81658],[-82.31808,33.81437],[-82.31439,33.81114],[-82.31349,33.80976],[-82.31306,33.8078],[-82.31211,33.80689],[-82.30545,33.80437],[-82.30269,33.80279],[-82.30021,33.80063],[-82.29928,33.79894],[-82.29892,33.79584],[-82.2996,33.78648],[-82.29939,33.78504],[-82.29829,33.78352],[-82.29498,33.78187],[-82.29247,33.78241],[-82.28976,33.78203],[-82.2858,33.78006],[-82.28076,33.77579],[-82.27757,33.77201],[-82.27071,33.76805],[-82.26785,33.76774],[-82.26594,33.7667],[-82.26503,33.76577],[-82.2635,33.76217],[-82.25945,33.76029],[-82.25739,33.76046],[-82.2556,33.75996],[-82.24808,33.75296],[-82.24561,33.7435],[-82.24059,33.73532],[-82.23911,33.73101],[-82.23921,33.72717],[-82.23728,33.72209],[-82.2357,33.71467],[-82.23705,33.70719],[-82.23527,33.70413],[-82.2345,33.70005],[-82.22802,33.69413],[-82.2261,33.6917],[-82.21837,33.68613],[-82.21195,33.67708],[-82.2094,33.67112],[-82.20795,33.66946],[-82.20071,33.66465],[-82.19981,33.66113],[-82.19973,33.6579],[-82.20111,33.64628],[-82.19949,33.64254],[-82.19689,33.63119],[-82.19553,33.62941],[-82.18503,33.6199],[-82.17972,33.61573],[-82.17637,33.61393],[-82.17306,33.61278],[-82.15941,33.61006],[-82.15636,33.6086],[-82.15342,33.60623],[-82.15044,33.59987],[-82.14874,33.59794],[-82.1428,33.59435],[-82.13562,33.59124],[-82.13194,33.59005],[-82.12903,33.58979],[-82.12529,33.59095],[-82.1203,33.59503],[-82.11745,33.59626],[-82.11279,33.59682],[-82.10804,33.59634],[-82.1052,33.59456],[-82.09876,33.58638],[-82.0963,33.5841],[-82.09408,33.58277],[-82.0865,33.58034],[-82.07506,33.5787],[-82.06776,33.57464],[-82.06344,33.57417],[-82.05375,33.56877],[-82.04633,33.56383],[-82.03808,33.55557],[-82.03677,33.55409],[-82.03315,33.54688],[-82.03214,33.54607],[-82.02898,33.54524],[-82.02408,33.54137],[-82.02362,33.54006],[-82.02386,33.53823],[-82.02283,33.53681],[-82.02123,33.53557],[-82.01393,33.5327],[-82.01098,33.531],[-82.0101,33.52972],[-82.00888,33.525],[-82.00765,33.52308],[-82.00425,33.52193],[-82.00186,33.52024],[-82.00091,33.51808],[-81.99693,33.51314],[-81.99535,33.50992],[-81.99496,33.50802],[-81.99093,33.50267],[-81.9903,33.49938],[-81.99102,33.4957],[-81.99095,33.4932],[-81.98974,33.49023],[-81.98726,33.48756],[-81.98453,33.48562],[-81.98165,33.4843],[-81.96553,33.48025],[-81.95992,33.47796],[-81.94896,33.47222],[-81.94253,33.46996],[-81.9341,33.46811],[-81.93124,33.46696],[-81.92871,33.46485],[-81.92475,33.46005],[-81.9202,33.45008],[-81.91361,33.44128],[-81.913,33.43837],[-81.91464,33.43498],[-81.91835,33.43165],[-81.92138,33.43064],[-81.92963,33.42991],[-81.93113,33.42913],[-81.93192,33.42805],[-81.93218,33.42592],[-81.93126,33.42366],[-81.92729,33.42123],[-81.92475,33.41851],[-81.92419,33.41471],[-81.92626,33.41056],[-81.92848,33.40798],[-81.93052,33.4068],[-81.93382,33.40657],[-81.93761,33.40748],[-81.94124,33.40898],[-81.94279,33.40907],[-81.94449,33.40845],[-81.94581,33.40696],[-81.94582,33.40515],[-81.94433,33.40337],[-81.93537,33.39773],[-81.93208,33.3862],[-81.93114,33.38077],[-81.92864,33.37758],[-81.92526,33.37543],[-81.92464,33.37407],[-81.9254,33.37188],[-81.92696,33.37013],[-81.9314,33.36787],[-81.93416,33.36844],[-81.93702,33.37169],[-81.93904,33.37238],[-81.9445,33.3721],[-81.94612,33.37112],[-81.9466,33.36847],[-81.94512,33.3648],[-81.94254,33.36207],[-81.93657,33.35835],[-81.93469,33.35538],[-81.93488,33.35261],[-81.94015,33.34751],[-81.94027,33.34568],[-81.9394,33.34439],[-81.93719,33.34367],[-81.93126,33.34367],[-81.92604,33.34537],[-81.92339,33.34465],[-81.91854,33.33889],[-81.91806,33.33649],[-81.91914,33.33444],[-81.91891,33.33336],[-81.91713,33.33192],[-81.90991,33.32843],[-81.90668,33.3261],[-81.90566,33.32625],[-81.90424,33.32741],[-81.90269,33.3311],[-81.90176,33.33224],[-81.90039,33.33252],[-81.89852,33.33217],[-81.89715,33.33063],[-81.89674,33.32865],[-81.89731,33.32746],[-81.89948,33.32534],[-81.89953,33.32415],[-81.89896,33.32305],[-81.89652,33.32155],[-81.89146,33.3224],[-81.88944,33.32145],[-81.89004,33.31914],[-81.89285,33.31651],[-81.89241,33.31524],[-81.89139,33.31479],[-81.88987,33.31508],[-81.88507,33.31749],[-81.88324,33.31723],[-81.88174,33.31575],[-81.8814,33.31432],[-81.88194,33.31241],[-81.88414,33.31057],[-81.88466,33.30889],[-81.88419,33.30771],[-81.88228,33.30602],[-81.88187,33.30337],[-81.88068,33.30221],[-81.87902,33.30253],[-81.87663,33.30684],[-81.87388,33.30911],[-81.87102,33.31275],[-81.86896,33.31374],[-81.86641,33.31339],[-81.86525,33.31216],[-81.86414,33.30778],[-81.86483,33.30369],[-81.86416,33.30244],[-81.86217,33.30274],[-81.86094,33.30485],[-81.85832,33.30649],[-81.85486,33.31084],[-81.85358,33.31062],[-81.85115,33.30864],[-81.84821,33.30748],[-81.8466,33.30563],[-81.84618,33.30431],[-81.84668,33.30298],[-81.8493,33.30026],[-81.85187,33.29908],[-81.8562,33.29948],[-81.86036,33.29889],[-81.86148,33.29831],[-81.86206,33.29727],[-81.86186,33.2926],[-81.8634,33.28985],[-81.86335,33.2881],[-81.86052,33.28562],[-81.85514,33.28412],[-81.84982,33.2835],[-81.84493,33.2838],[-81.84394,33.28286],[-81.84381,33.282],[-81.84467,33.27931],[-81.84411,33.2777],[-81.84068,33.27465],[-81.83556,33.27207],[-81.83536,33.2665],[-81.83639,33.26393]],[[-81.83639,33.26393],[-81.83834,33.26284]],[[-81.83834,33.26284],[-81.84222,33.26342],[-81.84355,33.26467],[-81.84385,33.26604],[-81.84499,33.26695],[-81.84643,33.26676],[-81.84789,33.26579],[-81.8483,33.26469],[-81.84804,33.26335],[-81.84614,33.25814],[-81.84481,33.25702],[-81.84008,33.25662],[-81.83933,33.25596],[-81.83927,33.2547],[-81.84003,33.25391],[-81.84633,33.25229],[-81.84973,33.25305],[-81.8512,33.25289],[-81.85304,33.25044],[-81.85302,33.24854],[-81.84864,33.24505],[-81.84654,33.24175],[-81.84284,33.23995],[-81.83794,33.23835],[-81.83174,33.23355],[-81.82794,33.22875],[-81.82154,33.22735],[-81.81554,33.22475],[-81.81174,33.22385],[-81.80964,33.22265],[-81.80814,33.21945],[-81.80794,33.21375],[-81.80674,33.21225],[-81.80454,33.21135],[-81.79824,33.21165],[-81.79024,33.20845],[-81.78454,33.20815],[-81.77894,33.20985],[-81.77734,33.21195],[-81.77734,33.21495],[-81.78115,33.22016],[-81.78114,33.22076],[-81.78017,33.22168],[-81.77882,33.22218],[-81.77675,33.22206],[-81.77344,33.22065],[-81.76828,33.217],[-81.76734,33.21455],[-81.76707,33.21204],[-81.76524,33.20935],[-81.76354,33.20365],[-81.76164,33.20175],[-81.75824,33.20025],[-81.75727,33.19922],[-81.75702,33.19796],[-81.75932,33.19533],[-81.76063,33.18925],[-81.76273,33.18785],[-81.76574,33.18795],[-81.76677,33.18737],[-81.76776,33.18523],[-81.76759,33.18257],[-81.76454,33.17955],[-81.76451,33.17839],[-81.76515,33.1773],[-81.76853,33.17694],[-81.76986,33.17613],[-81.76735,33.1724],[-81.76671,33.17047],[-81.76827,33.16846],[-81.76784,33.16675],[-81.76716,33.16574],[-81.76378,33.16483],[-81.76314,33.15945],[-81.75164,33.14787],[-81.74609,33.14473],[-81.74384,33.14145],[-81.7383,33.13863],[-81.7279,33.13219],[-81.71915,33.12492],[-81.712,33.12182],[-81.70463,33.11645],[-81.70313,33.11615],[-81.69983,33.11675],[-81.69693,33.11655],[-81.68353,33.11265],[-81.65843,33.10315],[-81.65386,33.09988],[-81.65314,33.0988],[-81.64521,33.09369],[-81.6402,33.09274],[-81.61776,33.09559],[-81.61443,33.09512],[-81.61229,33.09429],[-81.61041,33.09313],[-81.60854,33.08896],[-81.60953,33.08688],[-81.61316,33.08401],[-81.61322,33.08157],[-81.61276,33.08031],[-81.61121,33.07973],[-81.60684,33.08172],[-81.60365,33.08424],[-81.60213,33.0868],[-81.60068,33.08716],[-81.5998,33.08659],[-81.59944,33.08465],[-81.5972,33.08152],[-81.59642,33.07947],[-81.59838,33.07714],[-81.6032,33.07518],[-81.60355,33.07454],[-81.60283,33.07363],[-81.59851,33.07247],[-81.5916,33.07314],[-81.58969,33.07262],[-81.58041,33.06194],[-81.57933,33.06145],[-81.57469,33.06186],[-81.57415,33.06141],[-81.56899,33.05396],[-81.5654,33.05333],[-81.56229,33.0565],[-81.56161,33.05691],[-81.5599,33.0567],[-81.55885,33.05452],[-81.55936,33.05094],[-81.56002,33.05004],[-81.56575,33.04951],[-81.56617,33.04843],[-81.56596,33.04784],[-81.55964,33.04475],[-81.55261,33.04297],[-81.55115,33.04359],[-81.54661,33.04875],[-81.54392,33.04903],[-81.54187,33.04733],[-81.54184,33.04481],[-81.54077,33.04203],[-81.5391,33.0395],[-81.53778,33.0387],[-81.5348,33.03844],[-81.53072,33.04087],[-81.5283,33.04054],[-81.52801,33.03967],[-81.52879,33.03688],[-81.52857,33.03566],[-81.52296,33.03055],[-81.51968,33.02897],[-81.51206,33.02823],[-81.51004,33.02677],[-81.50994,33.02537],[-81.51101,33.02381],[-81.51129,33.02189],[-81.50866,33.01891],[-81.50797,33.01595],[-81.50921,33.0139],[-81.51157,33.01237],[-81.51142,33.01099],[-81.51069,33.01032],[-81.50803,33.00999],[-81.50664,33.01118],[-81.50667,33.01509],[-81.50496,33.01648],[-81.50197,33.01526],[-81.49868,33.01134],[-81.49664,33.01023],[-81.49196,33.0091],[-81.49135,33.00758],[-81.49164,33.00672],[-81.49283,33.006],[-81.49876,33.00507],[-81.50013,33.00376],[-81.50063,33.00246],[-81.49983,33.00066],[-81.49737,32.99976],[-81.49274,32.99911],[-81.4915,32.99858],[-81.4912,32.99783],[-81.49146,32.99544],[-81.49226,32.99352],[-81.49614,32.99092],[-81.49633,32.99022],[-81.496,32.9883],[-81.49417,32.98571],[-81.49568,32.98273],[-81.4948,32.98059],[-81.49474,32.979],[-81.49784,32.97302],[-81.49983,32.96382],[-81.50237,32.96252],[-81.50333,32.96251],[-81.50503,32.9631],[-81.50768,32.96504],[-81.50939,32.96479],[-81.51046,32.96365],[-81.51001,32.95733],[-81.50861,32.95256],[-81.50402,32.9481],[-81.49945,32.94499],[-81.49957,32.94373],[-81.50272,32.93869],[-81.50243,32.93536],[-81.50001,32.93226],[-81.4951,32.9316],[-81.49207,32.92783],[-81.48903,32.92667],[-81.4834,32.92186],[-81.48392,32.91929],[-81.48712,32.91769],[-81.48811,32.91638],[-81.48811,32.91545],[-81.48634,32.91393],[-81.4812,32.91408],[-81.48008,32.9132],[-81.47997,32.91266],[-81.48188,32.9089],[-81.48133,32.9077],[-81.47919,32.90564],[-81.47938,32.90234],[-81.48087,32.90022],[-81.48048,32.89756],[-81.47554,32.89673],[-81.47477,32.8963],[-81.47333,32.89411],[-81.47179,32.89381],[-81.47023,32.89504],[-81.47191,32.89819],[-81.47186,32.89987],[-81.47121,32.90096],[-81.46819,32.90127],[-81.46451,32.89903],[-81.46375,32.89707],[-81.46425,32.89592],[-81.46824,32.89326],[-81.47025,32.89039],[-81.47371,32.88972],[-81.4771,32.88748],[-81.47765,32.8868],[-81.47761,32.88346],[-81.47901,32.88256],[-81.47945,32.88109],[-81.47808,32.87927],[-81.47625,32.87858],[-81.47383,32.87664],[-81.46877,32.87626],[-81.46716,32.87743],[-81.46714,32.88061],[-81.46505,32.8809],[-81.46188,32.87756],[-81.46049,32.87495],[-81.45841,32.87396],[-81.45339,32.87389],[-81.45135,32.86859],[-81.45137,32.86717],[-81.45336,32.86385],[-81.45302,32.85964],[-81.45751,32.85278],[-81.45762,32.85071],[-81.45522,32.84754],[-81.4553,32.84441],[-81.4544,32.84368],[-81.45275,32.8437],[-81.45175,32.84477],[-81.4512,32.84793],[-81.4494,32.84913],[-81.44487,32.85097],[-81.4436,32.85063],[-81.44267,32.85011],[-81.44228,32.84859],[-81.44289,32.84585],[-81.44036,32.84114],[-81.43866,32.84008],[-81.43718,32.84054],[-81.43481,32.84354],[-81.43286,32.84349],[-81.43013,32.8419],[-81.42648,32.84078],[-81.42332,32.83661],[-81.42162,32.83518],[-81.42104,32.83342],[-81.42062,32.83123],[-81.42183,32.82927],[-81.42368,32.82831],[-81.42916,32.82865],[-81.43016,32.82777],[-81.42249,32.8229],[-81.42196,32.82147],[-81.42236,32.82025],[-81.42304,32.81975],[-81.42796,32.81939],[-81.42824,32.81859],[-81.4271,32.81688],[-81.42436,32.81619],[-81.42059,32.81866],[-81.41859,32.81869],[-81.41799,32.8182],[-81.4185,32.81567],[-81.42135,32.81211],[-81.42378,32.81052],[-81.42542,32.81114],[-81.42645,32.81072],[-81.42468,32.80664],[-81.4228,32.8043],[-81.42225,32.80313],[-81.42245,32.80248],[-81.42345,32.80176],[-81.4269,32.80225],[-81.42815,32.80153],[-81.4283,32.80084],[-81.42635,32.79889],[-81.42413,32.79136],[-81.42434,32.79072],[-81.42743,32.78833],[-81.42759,32.78695],[-81.42264,32.78592],[-81.42207,32.78557],[-81.42203,32.78458],[-81.42393,32.78273],[-81.42564,32.78261],[-81.42643,32.78268],[-81.42998,32.78524],[-81.43091,32.78512],[-81.43124,32.78415],[-81.43008,32.78178],[-81.42686,32.77946],[-81.42483,32.77871],[-81.42001,32.77893],[-81.41617,32.7798],[-81.4144,32.77894],[-81.41446,32.77816],[-81.41736,32.77334],[-81.4186,32.77274],[-81.42259,32.773],[-81.42986,32.77214],[-81.43152,32.77149],[-81.43209,32.77056],[-81.43194,32.76892],[-81.42912,32.76791],[-81.42289,32.7685],[-81.41895,32.76764],[-81.4171,32.76609],[-81.41684,32.76532],[-81.41736,32.76334],[-81.4189,32.76114],[-81.41777,32.76023],[-81.41663,32.76054],[-81.41463,32.76419],[-81.41325,32.76462],[-81.4121,32.76387],[-81.41184,32.76215],[-81.41382,32.75743],[-81.41404,32.75543],[-81.41227,32.7547],[-81.41112,32.75486],[-81.40857,32.75664],[-81.40799,32.75629],[-81.40816,32.75581],[-81.41022,32.75373],[-81.41157,32.75312],[-81.41372,32.75284],[-81.41674,32.75328],[-81.4191,32.75149],[-81.4197,32.74917],[-81.41861,32.748],[-81.41787,32.74783],[-81.41067,32.74932],[-81.40587,32.74915],[-81.40502,32.74829],[-81.40494,32.74557],[-81.40608,32.74163],[-81.40705,32.74067],[-81.40824,32.73997],[-81.41267,32.73909],[-81.41368,32.738],[-81.41378,32.73676],[-81.4116,32.73386],[-81.4121,32.73263],[-81.41328,32.73209],[-81.41468,32.73209],[-81.41704,32.73309],[-81.41855,32.73259],[-81.41828,32.73093],[-81.41676,32.72877],[-81.41782,32.72659],[-81.41777,32.72508],[-81.41559,32.72354],[-81.41058,32.72332],[-81.41008,32.7231],[-81.40999,32.72187],[-81.41158,32.72119],[-81.41838,32.72197],[-81.42034,32.72106],[-81.42029,32.71958],[-81.41935,32.7184],[-81.41576,32.71589],[-81.41504,32.71449],[-81.41512,32.71368],[-81.41557,32.71286],[-81.41667,32.71229],[-81.42004,32.71243],[-81.4212,32.71198],[-81.42244,32.70961],[-81.42593,32.71004],[-81.42646,32.70902],[-81.42436,32.70808],[-81.42408,32.7063],[-81.42752,32.7019],[-81.42674,32.70087],[-81.42142,32.7005],[-81.4206,32.69984],[-81.41888,32.69622],[-81.41781,32.69558],[-81.41358,32.69548],[-81.41241,32.6921],[-81.41055,32.69252],[-81.4103,32.69345],[-81.4112,32.69583],[-81.41088,32.69687],[-81.40962,32.69705],[-81.40902,32.69656],[-81.4075,32.69234],[-81.40569,32.68989],[-81.40571,32.68873],[-81.40701,32.68556],[-81.40581,32.68405],[-81.40432,32.68377],[-81.40323,32.68289],[-81.40126,32.68016],[-81.40103,32.6775],[-81.40319,32.67284],[-81.40429,32.6678],[-81.40392,32.66688],[-81.40147,32.6647],[-81.39755,32.6626],[-81.39716,32.66138],[-81.39829,32.65951],[-81.40035,32.65849],[-81.40233,32.6588],[-81.40326,32.65947],[-81.40412,32.66207],[-81.40537,32.66293],[-81.40665,32.66252],[-81.4073,32.66157],[-81.4072,32.66053],[-81.40528,32.65652],[-81.40327,32.65616],[-81.39944,32.65682],[-81.39382,32.6535],[-81.39304,32.65155],[-81.39459,32.64958],[-81.39804,32.6478],[-81.40003,32.64577],[-81.40359,32.6434],[-81.40511,32.6427],[-81.40811,32.64224],[-81.41182,32.64216],[-81.41256,32.64153],[-81.41216,32.63969]],[[-81.83639,33.26393],[-81.83649,33.26292],[-81.83461,33.26191],[-81.83254,33.26223],[-81.83041,33.26426],[-81.8296,33.26445],[-81.82836,33.26395],[-81.82812,33.26269],[-81.82855,33.262],[-81.83104,33.26101],[-81.83252,33.25907],[-81.8343,33.25811],[-81.8362,33.25861],[-81.83715,33.26009],[-81.83761,33.26243],[-81.83834,33.26284]],[[-81.41216,32.63969],[-81.41242,32.63846],[-81.41436,32.63754]],[[-81.41436,32.63754],[-81.41599,32.63691],[-81.41843,32.63471],[-81.41866,32.6294],[-81.41738,32.6274],[-81.41309,32.62481],[-81.41235,32.62272],[-81.41297,32.62041],[-81.41191,32.61842],[-81.41071,32.61743],[-81.40695,32.61625],[-81.40645,32.61542],[-81.40647,32.61305],[-81.40578,32.61225],[-81.39703,32.60559],[-81.39377,32.60234],[-81.38921,32.59542],[-81.38506,32.59219],[-81.381,32.58965],[-81.37756,32.58877],[-81.37561,32.58953],[-81.37403,32.59182],[-81.37318,32.59211],[-81.37157,32.59202],[-81.36976,32.59123],[-81.36898,32.59002],[-81.36897,32.58907],[-81.3703,32.58632],[-81.36992,32.5848],[-81.36734,32.58397],[-81.36373,32.58364],[-81.3633,32.58231],[-81.36416,32.58104],[-81.36717,32.57919],[-81.36773,32.57811],[-81.36696,32.57706],[-81.36481,32.57662],[-81.36309,32.57713],[-81.36214,32.57804],[-81.36073,32.581],[-81.35892,32.58249],[-81.35708,32.58205],[-81.35381,32.57963],[-81.35364,32.57854],[-81.35407,32.57738],[-81.35545,32.5763],[-81.35858,32.57471],[-81.35854,32.57377],[-81.35772,32.57279],[-81.35492,32.5712],[-81.34834,32.56934],[-81.32526,32.56016],[-81.32059,32.55953],[-81.30618,32.56132],[-81.30059,32.56284],[-81.29796,32.56303],[-81.29676,32.56265],[-81.29531,32.56109],[-81.29572,32.55846],[-81.29812,32.55542],[-81.29782,32.55422],[-81.29675,32.55343],[-81.29063,32.55516],[-81.28964,32.55423],[-81.28969,32.55283]],[[-81.41216,32.63969],[-81.41006,32.63879],[-81.40424,32.63826],[-81.40274,32.63704],[-81.40285,32.63622],[-81.40727,32.63174],[-81.40933,32.6311],[-81.41092,32.63197],[-81.41289,32.63669],[-81.41341,32.63737],[-81.41436,32.63754]],[[-81.29193,32.55949],[-81.2935,32.56164],[-81.29267,32.56266],[-81.29103,32.56275],[-81.28949,32.5615],[-81.28844,32.55852],[-81.28825,32.55641],[-81.28969,32.55283]],[[-81.28969,32.55283],[-81.2899,32.55182],[-81.28941,32.55144],[-81.28746,32.55111],[-81.28517,32.55228],[-81.28373,32.55664],[-81.28221,32.55671],[-81.28021,32.55574],[-81.27889,32.55375],[-81.27875,32.55229],[-81.28109,32.54962],[-81.28073,32.54765],[-81.27905,32.54631],[-81.27563,32.54564],[-81.27468,32.54431],[-81.2748,32.54114],[-81.27681,32.53733],[-81.27631,32.53485],[-81.27397,32.53346],[-81.27123,32.52995],[-81.26617,32.52761],[-81.26404,32.52569],[-81.25723,32.52189],[-81.25532,32.51989],[-81.25288,32.51833],[-81.25007,32.5178],[-81.24717,32.51845]],[[-81.24717,32.51845],[-81.24452,32.51844],[-81.2417,32.51688]],[[-81.24717,32.51845],[-81.24518,32.52034],[-81.24388,32.52089],[-81.24267,32.51949],[-81.2417,32.51688]],[[-81.2417,32.51688],[-81.2394,32.51645],[-81.23727,32.51727]],[[-81.23727,32.51727],[-81.23473,32.51722],[-81.23298,32.51618]],[[-81.23727,32.51727],[-81.23521,32.51866],[-81.2344,32.5186],[-81.23343,32.51799],[-81.23298,32.51618]],[[-81.23298,32.51618],[-81.23245,32.51277],[-81.23437,32.51165],[-81.23671,32.5114],[-81.23841,32.51019],[-81.23883,32.50744],[-81.23828,32.50599],[-81.23714,32.50473],[-81.23436,32.50307],[-81.23356,32.49867],[-81.2256,32.49238],[-81.21609,32.48207],[-81.21122,32.47849],[-81.20021,32.46831],[-81.19494,32.46519],[-81.19224,32.46463],[-81.18853,32.46515],[-81.18726,32.46423],[-81.18724,32.46269],[-81.18918,32.4608],[-81.19404,32.45917],[-81.19424,32.45785],[-81.1918,32.45458],[-81.19226,32.4537],[-81.19372,32.4533],[-81.19601,32.45465],[-81.19762,32.45481],[-81.20097,32.45301],[-81.20473,32.45255],[-81.20669,32.44752],[-81.20528,32.44629],[-81.20095,32.44608],[-81.1996,32.44459],[-81.19949,32.44196],[-81.20018,32.44098],[-81.20531,32.43828],[-81.20795,32.43761],[-81.20831,32.43614],[-81.20551,32.42883],[-81.20504,32.42622],[-81.20536,32.42333],[-81.20489,32.42265],[-81.20227,32.42032],[-81.19512,32.41171],[-81.18953,32.40653],[-81.18637,32.40133],[-81.18415,32.3988],[-81.18103,32.39632],[-81.17823,32.39303],[-81.17745,32.39067],[-81.17753,32.38732],[-81.17844,32.38449],[-81.17961,32.38222],[-81.18174,32.37982],[-81.18171,32.3792],[-81.17639,32.37661],[-81.17343,32.37259],[-81.16837,32.36939],[-81.16755,32.36836],[-81.16901,32.36497],[-81.16969,32.36442],[-81.17309,32.3638],[-81.17401,32.36335],[-81.17408,32.36283],[-81.17371,32.36239],[-81.16778,32.36107],[-81.16702,32.36057],[-81.1672,32.35888],[-81.16538,32.35734],[-81.16173,32.35609],[-81.16079,32.35523],[-81.16052,32.35383],[-81.1615,32.35112],[-81.16138,32.34995],[-81.16042,32.34916],[-81.15698,32.34923],[-81.15465,32.34996],[-81.15479,32.34478],[-81.154,32.34423],[-81.15164,32.34358],[-81.15053,32.3441],[-81.14804,32.3463],[-81.14665,32.35045],[-81.14539,32.3512],[-81.14235,32.35121],[-81.14156,32.35062],[-81.14008,32.34742],[-81.13963,32.34512],[-81.13838,32.34395],[-81.1351,32.34312],[-81.13333,32.34199],[-81.1285,32.34082],[-81.12872,32.33684],[-81.12986,32.33577],[-81.13217,32.33548],[-81.13303,32.33479],[-81.13463,32.33126],[-81.13614,32.3297],[-81.13753,32.32903],[-81.13787,32.32715],[-81.13509,32.32395],[-81.13456,32.32407],[-81.13328,32.32616],[-81.13214,32.32668],[-81.1313,32.32637],[-81.13075,32.32543],[-81.13161,32.32173],[-81.13159,32.31732],[-81.12944,32.31359],[-81.12973,32.31201],[-81.13106,32.31043],[-81.13303,32.30936],[-81.13348,32.30805],[-81.1319,32.30679],[-81.12971,32.30652],[-81.12709,32.30716],[-81.12478,32.30878],[-81.12402,32.30862],[-81.12293,32.3073],[-81.12233,32.30539],[-81.12253,32.29979],[-81.12401,32.29635],[-81.12409,32.29512],[-81.12287,32.29304],[-81.12024,32.2906],[-81.11959,32.28876],[-81.11956,32.28647],[-81.12143,32.2845],[-81.12697,32.2831],[-81.1271,32.28013],[-81.12625,32.27904],[-81.12378,32.27749],[-81.12295,32.27624],[-81.12314,32.27541],[-81.12412,32.27484],[-81.12899,32.27637],[-81.13083,32.2746],[-81.13235,32.27035],[-81.13292,32.26984],[-81.13398,32.26974],[-81.13567,32.27259],[-81.14188,32.27168],[-81.14225,32.27098],[-81.14191,32.27043],[-81.13945,32.26977],[-81.13738,32.2679],[-81.13716,32.26629],[-81.13781,32.26478],[-81.13956,32.26374],[-81.14456,32.264],[-81.14633,32.26333],[-81.14646,32.26077],[-81.14471,32.25825],[-81.14734,32.25647],[-81.14794,32.25544],[-81.14791,32.25463],[-81.14578,32.25166],[-81.14617,32.25036],[-81.14686,32.2497],[-81.15348,32.24742],[-81.15622,32.24497],[-81.15655,32.24262],[-81.15569,32.24044],[-81.15362,32.2375],[-81.15088,32.23505],[-81.14556,32.23229],[-81.14448,32.23128],[-81.14366,32.22913],[-81.14428,32.22652],[-81.14551,32.22509],[-81.14782,32.22371],[-81.152,32.22254],[-81.15294,32.22096],[-81.15294,32.21887],[-81.14915,32.21201],[-81.14905,32.20945],[-81.15098,32.20483],[-81.1519,32.20054],[-81.15624,32.19624],[-81.15823,32.19533],[-81.15827,32.19344],[-81.15466,32.19095],[-81.15236,32.18838],[-81.1524,32.18657],[-81.15787,32.18279],[-81.15768,32.18084],[-81.15415,32.17707],[-81.14957,32.17708],[-81.14781,32.17537],[-81.14734,32.1736],[-81.14748,32.17129],[-81.14544,32.17],[-81.1401,32.17187],[-81.13856,32.17084],[-81.13776,32.16954],[-81.13753,32.16301],[-81.13577,32.15552],[-81.13146,32.14737],[-81.13129,32.14591],[-81.13215,32.14445],[-81.13366,32.14368],[-81.1353,32.14328],[-81.14009,32.14333],[-81.1415,32.14264],[-81.14238,32.14032],[-81.14108,32.13595],[-81.13686,32.12884],[-81.13372,32.1222],[-81.13092,32.11836],[-81.12007,32.10671],[-81.10686,32.09596],[-81.09497,32.08463],[-81.09074,32.08267],[-81.07682,32.07885],[-81.07243,32.07871],[-81.06071,32.08093],[-81.05087,32.07998],[-81.04544,32.08036],[-81.0253,32.08755],[-81.02031,32.09205],[-81.01558,32.09809],[-81.00879,32.10146],[-81.00431,32.10113],[-81.00008,32.09934],[-80.99528,32.09568],[-80.99173,32.09216],[-80.98773,32.08421],[-80.98605,32.08142],[-80.98429,32.0797],[-80.98139,32.0776],[-80.97205,32.07365],[-80.96309,32.07214],[-80.95532,32.0681],[-80.92864,32.04355],[-80.92064,32.03824],[-80.91441,32.03723],[-80.89041,32.03496],[-80.88244,32.03466],[-80.84834,32.03784]]]}}]}