{"type":"FeatureCollection","source":"U.S. Census Bureau, 2018 Cartographic Boundary File, States 1:20,000,000 (cb_2018_us_state_20m), public domain; simplified","features":[{"type":"Feature","properties":{"state":"GA","name":"Georgia","utility":"GPC"},"geometry":{"type":"MultiPolygon","coordinates":[[[[-85.605,34.985],[-83.62,34.987],[-83.109,35.001],[-83.141,34.925],[-83.253,34.853],[-83.324,34.79],[-83.32,34.76],[-83.353,34.729],[-83.339,34.682],[-83.221,34.61],[-83.155,34.588],[-83.048,34.493],[-82.995,34.472],[-82.926,34.482],[-82.874,34.472],[-82.823,34.359],[-82.745,34.245],[-82.715,34.148],[-82.643,34.081],[-82.557,33.945],[-82.513,33.937],[-82.431,33.867],[-82.324,33.82],[-82.239,33.731],[-82.2,33.658],[-82.162,33.611],[-82.106,33.596],[-82.028,33.545],[-81.991,33.494],[-81.926,33.463],[-81.92,33.411],[-81.933,33.344],[-81.846,33.304],[-81.847,33.242],[-81.764,33.204],[-81.755,33.152],[-81.602,33.085],[-81.502,33.015],[-81.5,32.944],[-81.421,32.831],[-81.394,32.653],[-81.397,32.606],[-81.329,32.561],[-81.275,32.544],[-81.195,32.465],[-81.195,32.411],[-81.133,32.335],[-81.128,32.276],[-81.154,32.238],[-81.119,32.177],[-81.113,32.113],[-81.038,32.084],[-81.007,32.101],[-80.943,32.058],[-80.843,32.024],[-80.848,31.988],[-80.911,31.944],[-81.0,31.857],[-81.077,31.761],[-81.131,31.723],[-81.139,31.7],[-81.133,31.623],[-81.173,31.556],[-81.177,31.517],[-81.259,31.404],[-81.279,31.351],[-81.261,31.304],[-81.283,31.244],[-81.305,31.206],[-81.368,31.137],[-81.402,31.125],[-81.401,31.073],[-81.42,31.017],[-81.408,30.978],[-81.405,30.908],[-81.46,30.77],[-81.444,30.71],[-81.507,30.723],[-81.562,30.716],[-81.668,30.745],[-81.732,30.75],[-81.763,30.774],[-81.809,30.79],[-81.869,30.793],[-81.902,30.821],[-81.943,30.827],[-82.033,30.751],[-82.05,30.656],[-82.016,30.602],[-82.028,30.447],[-82.042,30.403],[-82.041,30.37],[-82.095,30.361],[-82.18,30.369],[-82.21,30.425],[-82.201,30.474],[-82.229,30.521],[-82.219,30.564],[-83.5,30.646],[-84.865,30.712],[-84.918,30.772],[-84.936,30.879],[-85.006,30.977],[-85.011,31.054],[-85.036,31.108],[-85.108,31.186],[-85.108,31.259],[-85.09,31.295],[-85.092,31.363],[-85.066,31.431],[-85.072,31.468],[-85.042,31.545],[-85.058,31.571],[-85.058,31.62],[-85.126,31.695],[-85.119,31.733],[-85.142,31.839],[-85.068,31.967],[-85.047,32.087],[-85.059,32.136],[-84.998,32.185],[-84.93,32.219],[-84.892,32.263],[-85.008,32.337],[-84.983,32.363],[-84.972,32.443],[-85.007,32.524],[-85.07,32.583],[-85.114,32.73],[-85.184,32.861],[-85.605,34.985]]]]}},{"type":"Feature","properties":{"state":"SC","name":"South Carolina","utility":"DESC"},"geometry":{"type":"MultiPolygon","coordinates":[[[[-83.353,34.729],[-83.32,34.76],[-83.324,34.79],[-83.253,34.853],[-83.141,34.925],[-83.109,35.001],[-82.783,35.086],[-82.746,35.079],[-82.686,35.125],[-82.456,35.177],[-82.411,35.202],[-81.043,35.149],[-81.037,35.123],[-81.058,35.073],[-81.041,35.045],[-80.935,35.107],[-80.782,34.936],[-80.797,34.824],[-79.675,34.805],[-78.541,33.851],[-78.672,33.818],[-78.773,33.769],[-78.938,33.64],[-79.029,33.533],[-79.085,33.484],[-79.135,33.404],[-79.181,33.238],[-79.172,33.207],[-79.215,33.156],[-79.33,33.09],[-79.36,33.007],[-79.423,33.015],[-79.483,33.001],[-79.522,33.035],[-79.581,33.006],[-79.607,32.972],[-79.57,32.927],[-79.601,32.898],[-79.695,32.85],[-79.726,32.806],[-79.868,32.735],[-79.885,32.684],[-79.968,32.64],[-80.001,32.606],[-80.077,32.603],[-80.148,32.578],[-80.19,32.547],[-80.246,32.531],[-80.338,32.479],[-80.414,32.471],[-80.466,32.495],[-80.485,32.461],[-80.434,32.375],[-80.455,32.326],[-80.539,32.287],[-80.596,32.274],[-80.715,32.326],[-80.766,32.293],[-80.669,32.217],[-80.721,32.16],[-80.813,32.11],[-80.859,32.1],[-80.886,32.035],[-80.943,32.058],[-81.007,32.101],[-81.038,32.084],[-81.113,32.113],[-81.119,32.177],[-81.154,32.238],[-81.128,32.276],[-81.133,32.335],[-81.195,32.411],[-81.195,32.465],[-81.275,32.544],[-81.329,32.561],[-81.397,32.606],[-81.394,32.653],[-81.421,32.831],[-81.5,32.944],[-81.502,33.015],[-81.602,33.085],[-81.755,33.152],[-81.764,33.204],[-81.847,33.242],[-81.846,33.304],[-81.933,33.344],[-81.92,33.411],[-81.926,33.463],[-81.991,33.494],[-82.028,33.545],[-82.106,33.596],[-82.162,33.611],[-82.2,33.658],[-82.239,33.731],[-82.324,33.82],[-82.431,33.867],[-82.513,33.937],[-82.557,33.945],[-82.643,34.081],[-82.715,34.148],[-82.745,34.245],[-82.823,34.359],[-82.874,34.472],[-82.926,34.482],[-82.995,34.472],[-83.048,34.493],[-83.155,34.588],[-83.221,34.61],[-83.339,34.682],[-83.353,34.729]]]]}}]}