{
  "type": "FeatureCollection",
  "features": [
    {
      "type": "Feature",
      "properties": {
        "name": "Savannah River"
      },
      "geometry": {
        "type": "LineString",
        "coordinates": [
          [
            -82.6,
            34.05
          ],
          [
            -82.4,
            33.85
          ],
          [
            -82.22,
            33.66
          ],
          [
            -82.1,
            33.6
          ],
          [
            -82.03,
            33.55
          ],
          [
            -81.98,
            33.49
          ],
          [
            -81.94,
            33.44
          ],
          [
            -81.91,
            33.37
          ],
          [
            -81.88,
            33.33
          ],
          [
            -81.8,
            33.25
          ],
          [
            -81.745,
            33.15
          ],
          [
            -81.66,
            33.05
          ],
          [
            -81.55,
            32.97
          ],
          [
            -81.5,
            32.94
          ],
          [
            -81.44,
            32.84
          ],
          [
            -81.4,
            32.74
          ],
          [
            -81.33,
            32.62
          ],
          [
            -81.27,
            32.52
          ],
          [
            -81.2,
            32.44
          ],
          [
            -81.155,
            32.37
          ],
          [
            -81.13,
            32.3
          ],
          [
            -81.13,
            32.23
          ],
          [
            -81.12,
            32.16
          ],
          [
            -81.1,
            32.09
          ],
          [
            -81.02,
            32.06
          ],
          [
            -80.95,
            32.04
          ],
          [
            -80.88,
            32.03
          ]
        ]
      }
    }
  ]
}
